{
 "generated_at": "2026-07-20T08:05:52Z",
 "sources": [
  {
   "name": "CelesTrak",
   "url": "https://celestrak.org/NORAD/elements/",
   "license": "frei verfügbar; Attribution. Ursprünglich USSPACECOM/Space-Track."
  },
  {
   "name": "GCAT (J. McDowell, planet4589.org)",
   "url": "https://planet4589.org/space/gcat/",
   "license": "CC-BY 4.0"
  }
 ],
 "satellites": [
  {
   "norad": 28376,
   "name": "AURA",
   "intl": "2004-026A",
   "group": "resource",
   "gcat": {
    "class": "C",
    "category": "EOSCI",
    "owner": "GSFC",
    "state": "US"
   },
   "omm": {
    "OBJECT_NAME": "AURA",
    "OBJECT_ID": "2004-026A",
    "EPOCH": "2026-07-19T20:26:38.628672",
    "MEAN_MOTION": 14.61371559,
    "ECCENTRICITY": 0.0001385,
    "INCLINATION": 98.3432,
    "RA_OF_ASC_NODE": 157.5798,
    "ARG_OF_PERICENTER": 93.9842,
    "MEAN_ANOMALY": 266.1516,
    "EPHEMERIS_TYPE": 0,
    "CLASSIFICATION_TYPE": "U",
    "NORAD_CAT_ID": 28376,
    "ELEMENT_SET_NO": 999,
    "REV_AT_EPOCH": 17098,
    "BSTAR": 0.000080014,
    "MEAN_MOTION_DOT": 0.00000347,
    "MEAN_MOTION_DDOT": 0
   }
  },
  {
   "norad": 63772,
   "name": "BIOMASS",
   "intl": "2025-090A",
   "group": "resource",
   "gcat": {
    "class": "C",
    "category": "EOSCI",
    "owner": "ESA",
    "state": "I-ESA"
   },
   "omm": {
    "OBJECT_NAME": "BIOMASS",
    "OBJECT_ID": "2025-090A",
    "EPOCH": "2026-07-19T11:46:59.966976",
    "MEAN_MOTION": 14.67535137,
    "ECCENTRICITY": 0.00014118,
    "INCLINATION": 98.0751,
    "RA_OF_ASC_NODE": 27.3359,
    "ARG_OF_PERICENTER": 90.475,
    "MEAN_ANOMALY": 269.6617,
    "EPHEMERIS_TYPE": 0,
    "CLASSIFICATION_TYPE": "U",
    "NORAD_CAT_ID": 63772,
    "ELEMENT_SET_NO": 999,
    "REV_AT_EPOCH": 6542,
    "BSTAR": 0.000050119626,
    "MEAN_MOTION_DOT": 0.00000236,
    "MEAN_MOTION_DDOT": 0
   }
  },
  {
   "norad": 57693,
   "name": "CAPELLA-11 (ACADIA-1)",
   "intl": "2023-126A",
   "group": "sar",
   "gcat": {
    "class": "B",
    "category": "IMG-R",
    "owner": "CAPSP",
    "state": "US"
   },
   "omm": {
    "OBJECT_NAME": "CAPELLA-11 (ACADIA-1)",
    "OBJECT_ID": "2023-126A",
    "EPOCH": "2026-07-19T19:56:56.823072",
    "MEAN_MOTION": 14.85234751,
    "ECCENTRICITY": 0.0002076,
    "INCLINATION": 53.0077,
    "RA_OF_ASC_NODE": 43.1365,
    "ARG_OF_PERICENTER": 132.131,
    "MEAN_ANOMALY": 227.9846,
    "EPHEMERIS_TYPE": 0,
    "CLASSIFICATION_TYPE": "U",
    "NORAD_CAT_ID": 57693,
    "ELEMENT_SET_NO": 999,
    "REV_AT_EPOCH": 15697,
    "BSTAR": 0.00026033,
    "MEAN_MOTION_DOT": 0.00002023,
    "MEAN_MOTION_DDOT": 0
   }
  },
  {
   "norad": 60419,
   "name": "CAPELLA-13 (ACADIA-3)",
   "intl": "2024-142A",
   "group": "sar",
   "gcat": {
    "class": "B",
    "category": "IMG-R",
    "owner": "CAPSP",
    "state": "US"
   },
   "omm": {
    "OBJECT_NAME": "CAPELLA-13 (ACADIA-3)",
    "OBJECT_ID": "2024-142A",
    "EPOCH": "2026-07-19T11:32:53.259072",
    "MEAN_MOTION": 14.87647476,
    "ECCENTRICITY": 0.000135,
    "INCLINATION": 53.0046,
    "RA_OF_ASC_NODE": 276.6051,
    "ARG_OF_PERICENTER": 90.275,
    "MEAN_ANOMALY": 269.8385,
    "EPHEMERIS_TYPE": 0,
    "CLASSIFICATION_TYPE": "U",
    "NORAD_CAT_ID": 60419,
    "ELEMENT_SET_NO": 999,
    "REV_AT_EPOCH": 10521,
    "BSTAR": 0.00021993,
    "MEAN_MOTION_DOT": 0.00001784,
    "MEAN_MOTION_DDOT": 0
   }
  },
  {
   "norad": 59444,
   "name": "CAPELLA-14 (ACADIA-4)",
   "intl": "2024-066C",
   "group": "sar",
   "gcat": {
    "class": "B",
    "category": "IMG-R",
    "owner": "CAPSP",
    "state": "US"
   },
   "omm": {
    "OBJECT_NAME": "CAPELLA-14 (ACADIA-4)",
    "OBJECT_ID": "2024-066C",
    "EPOCH": "2026-07-19T17:48:23.411232",
    "MEAN_MOTION": 15.06947812,
    "ECCENTRICITY": 0.0002233,
    "INCLINATION": 45.5998,
    "RA_OF_ASC_NODE": 84.0634,
    "ARG_OF_PERICENTER": 36.1334,
    "MEAN_ANOMALY": 323.9701,
    "EPHEMERIS_TYPE": 0,
    "CLASSIFICATION_TYPE": "U",
    "NORAD_CAT_ID": 59444,
    "ELEMENT_SET_NO": 999,
    "REV_AT_EPOCH": 11740,
    "BSTAR": 0.00037283,
    "MEAN_MOTION_DOT": 0.00005417,
    "MEAN_MOTION_DDOT": 0
   }
  },
  {
   "norad": 60544,
   "name": "CAPELLA-15 (ACADIA-5)",
   "intl": "2024-149CE",
   "group": "sar",
   "gcat": {
    "class": "B",
    "category": "IMG-R",
    "owner": "CAPSP",
    "state": "US"
   },
   "omm": {
    "OBJECT_NAME": "CAPELLA-15 (ACADIA-5)",
    "OBJECT_ID": "2024-149CE",
    "EPOCH": "2026-07-19T18:34:01.511904",
    "MEAN_MOTION": 14.92381862,
    "ECCENTRICITY": 0.0003051,
    "INCLINATION": 97.6759,
    "RA_OF_ASC_NODE": 272.8602,
    "ARG_OF_PERICENTER": 321.4338,
    "MEAN_ANOMALY": 38.6663,
    "EPHEMERIS_TYPE": 0,
    "CLASSIFICATION_TYPE": "U",
    "NORAD_CAT_ID": 60544,
    "ELEMENT_SET_NO": 999,
    "REV_AT_EPOCH": 10471,
    "BSTAR": 0.00014885,
    "MEAN_MOTION_DOT": 0.00001468,
    "MEAN_MOTION_DDOT": 0
   }
  },
  {
   "norad": 65318,
   "name": "CAPELLA-16 (ACADIA-6)",
   "intl": "2025-188D",
   "group": "sar",
   "gcat": {
    "class": "B",
    "category": "IMG-R",
    "owner": "CAPSP",
    "state": "US"
   },
   "omm": {
    "OBJECT_NAME": "CAPELLA-16 (ACADIA-6)",
    "OBJECT_ID": "2025-188D",
    "EPOCH": "2026-07-19T18:36:27.782784",
    "MEAN_MOTION": 14.9408014,
    "ECCENTRICITY": 0.0005857,
    "INCLINATION": 97.7374,
    "RA_OF_ASC_NODE": 275.4405,
    "ARG_OF_PERICENTER": 123.576,
    "MEAN_ANOMALY": 236.6019,
    "EPHEMERIS_TYPE": 0,
    "CLASSIFICATION_TYPE": "U",
    "NORAD_CAT_ID": 65318,
    "ELEMENT_SET_NO": 999,
    "REV_AT_EPOCH": 4878,
    "BSTAR": 0.00025294,
    "MEAN_MOTION_DOT": 0.00002646,
    "MEAN_MOTION_DDOT": 0
   }
  },
  {
   "norad": 64583,
   "name": "CAPELLA-17 (ACADIA-7)",
   "intl": "2025-135BH",
   "group": "sar",
   "gcat": {
    "class": "B",
    "category": "IMG-R",
    "owner": "CAPSP",
    "state": "US"
   },
   "omm": {
    "OBJECT_NAME": "CAPELLA-17 (ACADIA-7)",
    "OBJECT_ID": "2025-135BH",
    "EPOCH": "2026-07-19T19:23:50.330688",
    "MEAN_MOTION": 14.91650261,
    "ECCENTRICITY": 0.0004287,
    "INCLINATION": 97.7711,
    "RA_OF_ASC_NODE": 313.9507,
    "ARG_OF_PERICENTER": 230.4306,
    "MEAN_ANOMALY": 129.6535,
    "EPHEMERIS_TYPE": 0,
    "CLASSIFICATION_TYPE": "U",
    "NORAD_CAT_ID": 64583,
    "ELEMENT_SET_NO": 999,
    "REV_AT_EPOCH": 5871,
    "BSTAR": 0.00032367,
    "MEAN_MOTION_DOT": 0.00003197,
    "MEAN_MOTION_DDOT": 0
   }
  },
  {
   "norad": 67385,
   "name": "CAPELLA-18 (ACADIA-8)",
   "intl": "2026-004Y",
   "group": "sar",
   "gcat": {
    "class": "B",
    "category": "IMG-R",
    "owner": "CAPSP",
    "state": "US"
   },
   "omm": {
    "OBJECT_NAME": "CAPELLA-18 (ACADIA-8)",
    "OBJECT_ID": "2026-004Y",
    "EPOCH": "2026-07-19T10:46:31.521216",
    "MEAN_MOTION": 14.86650138,
    "ECCENTRICITY": 0.0001465,
    "INCLINATION": 97.8021,
    "RA_OF_ASC_NODE": 198.3935,
    "ARG_OF_PERICENTER": 97.0278,
    "MEAN_ANOMALY": 263.1105,
    "EPHEMERIS_TYPE": 0,
    "CLASSIFICATION_TYPE": "U",
    "NORAD_CAT_ID": 67385,
    "ELEMENT_SET_NO": 999,
    "REV_AT_EPOCH": 2807,
    "BSTAR": 0.00023525039,
    "MEAN_MOTION_DOT": 0.00002035,
    "MEAN_MOTION_DDOT": 0
   }
  },
  {
   "norad": 67384,
   "name": "CAPELLA-19 (ACADIA-9)",
   "intl": "2026-004X",
   "group": "sar",
   "gcat": {
    "class": "B",
    "category": "IMG-R",
    "owner": "CAPSP",
    "state": "US"
   },
   "omm": {
    "OBJECT_NAME": "CAPELLA-19 (ACADIA-9)",
    "OBJECT_ID": "2026-004X",
    "EPOCH": "2026-07-19T16:59:46.720032",
    "MEAN_MOTION": 14.86638862,
    "ECCENTRICITY": 0.0001537,
    "INCLINATION": 97.8015,
    "RA_OF_ASC_NODE": 198.4941,
    "ARG_OF_PERICENTER": 94.4991,
    "MEAN_ANOMALY": 265.64,
    "EPHEMERIS_TYPE": 0,
    "CLASSIFICATION_TYPE": "U",
    "NORAD_CAT_ID": 67384,
    "ELEMENT_SET_NO": 999,
    "REV_AT_EPOCH": 2810,
    "BSTAR": 0.00024332,
    "MEAN_MOTION_DOT": 0.00002106,
    "MEAN_MOTION_DDOT": 0
   }
  }
 ]
}
