AURA                    
1 28376U 04026A   26200.85183598  .00000347  00000+0  80014-4 0  9995
2 28376  98.3432 157.5798 0001385  93.9842 266.1516 14.61371559170985
CAPELLA-11 (ACADIA-1)   
1 57693U 23126A   26200.83121323  .00002023  00000+0  26033-3 0  9990
2 57693  53.0077  43.1365 0002076 132.1310 227.9846 14.85234751156978
CAPELLA-14 (ACADIA-4)   
1 59444U 24066C   26200.74193763  .00005417  00000+0  37283-3 0  9996
2 59444  45.5998  84.0634 0002233  36.1334 323.9701 15.06947812117404
CAPELLA-13 (ACADIA-3)   
1 60419U 24142A   26200.48117198  .00001784  00000+0  21993-3 0  9998
2 60419  53.0046 276.6051 0001350  90.2750 269.8385 14.87647476105213
CAPELLA-15 (ACADIA-5)   
1 60544U 24149CE  26200.77362861  .00001468  00000+0  14885-3 0  9996
2 60544  97.6759 272.8602 0003051 321.4338  38.6663 14.92381862104713
BIOMASS                 
1 63772U 25090A   26200.49097184  .00000236  00000+0  50120-4 0  9995
2 63772  98.0751  27.3359 0001411  90.4750 269.6617 14.67535137 65424
CAPELLA-17 (ACADIA-7)   
1 64583U 25135BH  26200.80822142  .00003197  00000+0  32367-3 0  9992
2 64583  97.7711 313.9507 0004287 230.4306 129.6535 14.91650261 58714
CAPELLA-16 (ACADIA-6)   
1 65318U 25188D   26200.77532156  .00002646  00000+0  25294-3 0  9995
2 65318  97.7374 275.4405 0005857 123.5760 236.6019 14.94080140 48783
CAPELLA-19 (ACADIA-9)   
1 67384U 26004X   26200.70817963  .00002106  00000+0  24332-3 0  9996
2 67384  97.8015 198.4941 0001537  94.4991 265.6400 14.86638862 28104
CAPELLA-18 (ACADIA-8)   
1 67385U 26004Y   26200.44897594  .00002035  00000+0  23525-3 0  9990
2 67385  97.8021 198.3935 0001465  97.0278 263.1105 14.86650138 28072
